{
  "type": "FeatureCollection",
  "features": [
    {
      "type": "Feature",
      "properties": {
        "norad_id": 31877,
        "name": "FENGYUN 1C DEB",
        "group": "fengyun-1c-debris",
        "lat": -58.01466567583345,
        "lon": 69.04720758386915,
        "alt_km": 499.3532402074561,
        "timestamp": "2025-12-10T11:33:53.669549+00:00",
        "meta_object_name": "FENGYUN 1C DEB",
        "meta_object_id": "1999-025CKC",
        "meta_epoch": "2025-12-10T03:49:37.380288",
        "meta_mean_motion": 15.01407414,
        "meta_eccentricity": 0.0104499,
        "meta_inclination": 99.0012,
        "meta_ra_of_asc_node": 53.9701,
        "meta_arg_of_pericenter": 287.3757,
        "meta_mean_anomaly": 71.6056,
        "meta_ephemeris_type": 0,
        "meta_classification_type": "U",
        "meta_norad_cat_id": 31877,
        "meta_element_set_no": 999,
        "meta_rev_at_epoch": 99003,
        "meta_bstar": 0.0011743,
        "meta_mean_motion_dot": 0.00016981,
        "meta_mean_motion_ddot": 0,
        "tle_line1": "1 31877U 99025CKC 25344.15946042  .00016981  00000+0  11743-2 0  9992",
        "tle_line2": "2 31877  99.0012  53.9701 0104499 287.3757  71.6056 15.01407414990033"
      },
      "geometry": {
        "type": "Point",
        "coordinates": [
          69.04720758386915,
          -58.01466567583345
        ]
      }
    },
    {
      "type": "Feature",
      "properties": {
        "norad_id": 31878,
        "name": "FENGYUN 1C DEB",
        "group": "fengyun-1c-debris",
        "lat": -69.96882917636684,
        "lon": -65.23696399852658,
        "alt_km": 574.3178147226472,
        "timestamp": "2025-12-10T11:33:53.669559+00:00",
        "meta_object_name": "FENGYUN 1C DEB",
        "meta_object_id": "1999-025CKD",
        "meta_epoch": "2025-12-03T00:27:41.548032",
        "meta_mean_motion": 14.85464766,
        "meta_eccentricity": 0.00842743,
        "meta_inclination": 99.4399,
        "meta_ra_of_asc_node": 258.7733,
        "meta_arg_of_pericenter": 269.6043,
        "meta_mean_anomaly": 89.551,
        "meta_ephemeris_type": 0,
        "meta_classification_type": "U",
        "meta_norad_cat_id": 31878,
        "meta_element_set_no": 999,
        "meta_rev_at_epoch": 97949,
        "meta_bstar": 0.0019397439,
        "meta_mean_motion_dot": 0.000178,
        "meta_mean_motion_ddot": 0,
        "tle_line1": "1 31878U 99025CKD 25337.01923088  .00017800  00000+0  19397-2 0  9999",
        "tle_line2": "2 31878  99.4399 258.7733 0084274 269.6043  89.5510 14.85464766979499"
      },
      "geometry": {
        "type": "Point",
        "coordinates": [
          -65.23696399852658,
          -69.96882917636684
        ]
      }
    },
    {
      "type": "Feature",
      "properties": {
        "norad_id": 31879,
        "name": "FENGYUN 1C DEB",
        "group": "fengyun-1c-debris",
        "lat": 61.887835814901706,
        "lon": -156.0550459119407,
        "alt_km": 602.1093199311235,
        "timestamp": "2025-12-10T11:33:53.669569+00:00",
        "meta_object_name": "FENGYUN 1C DEB",
        "meta_object_id": "1999-025CKE",
        "meta_epoch": "2025-12-10T02:57:42.884928",
        "meta_mean_motion": 14.42891816,
        "meta_eccentricity": 0.0209936,
        "meta_inclination": 99.709,
        "meta_ra_of_asc_node": 222.2286,
        "meta_arg_of_pericenter": 44.3131,
        "meta_mean_anomaly": 317.4648,
        "meta_ephemeris_type": 0,
        "meta_classification_type": "U",
        "meta_norad_cat_id": 31879,
        "meta_element_set_no": 999,
        "meta_rev_at_epoch": 63172,
        "meta_bstar": 0.00045543,
        "meta_mean_motion_dot": 1.92e-05,
        "meta_mean_motion_ddot": 0,
        "tle_line1": "1 31879U 99025CKE 25344.12341302  .00001920  00000+0  45543-3 0  9992",
        "tle_line2": "2 31879  99.7090 222.2286 0209936  44.3131 317.4648 14.42891816631729"
      },
      "geometry": {
        "type": "Point",
        "coordinates": [
          -156.0550459119407,
          61.887835814901706
        ]
      }
    },
    {
      "type": "Feature",
      "properties": {
        "norad_id": 31880,
        "name": "FENGYUN 1C DEB",
        "group": "fengyun-1c-debris",
        "lat": 46.78538458933095,
        "lon": 136.26281930351936,
        "alt_km": 957.3980307200618,
        "timestamp": "2025-12-10T11:33:53.669579+00:00",
        "meta_object_name": "FENGYUN 1C DEB",
        "meta_object_id": "1999-025CKF",
        "meta_epoch": "2025-12-07T17:39:23.204736",
        "meta_mean_motion": 13.89389039,
        "meta_eccentricity": 0.01282018,
        "meta_inclination": 100.0287,
        "meta_ra_of_asc_node": 144.1639,
        "meta_arg_of_pericenter": 164.9392,
        "meta_mean_anomaly": 195.5637,
        "meta_ephemeris_type": 0,
        "meta_classification_type": "U",
        "meta_norad_cat_id": 31880,
        "meta_element_set_no": 999,
        "meta_rev_at_epoch": 62910,
        "meta_bstar": 0.00081356926,
        "meta_mean_motion_dot": 1.01e-05,
        "meta_mean_motion_ddot": 0,
        "tle_line1": "1 31880U 99025CKF 25341.73568524  .00001010  00000+0  81357-3 0  9998",
        "tle_line2": "2 31880 100.0287 144.1639 0128201 164.9392 195.5637 13.89389039629103"
      },
      "geometry": {
        "type": "Point",
        "coordinates": [
          136.26281930351936,
          46.78538458933095
        ]
      }
    },
    {
      "type": "Feature",
      "properties": {
        "norad_id": 31882,
        "name": "FENGYUN 1C DEB",
        "group": "fengyun-1c-debris",
        "lat": 24.357274974704264,
        "lon": 91.09558923348898,
        "alt_km": 842.6197197594711,
        "timestamp": "2025-12-10T11:33:53.669589+00:00",
        "meta_object_name": "FENGYUN 1C DEB",
        "meta_object_id": "1999-025CKH",
        "meta_epoch": "2025-12-04T12:04:11.131104",
        "meta_mean_motion": 14.12940251,
        "meta_eccentricity": 0.0035445,
        "meta_inclination": 98.9162,
        "meta_ra_of_asc_node": 261.0675,
        "meta_arg_of_pericenter": 248.9848,
        "meta_mean_anomaly": 110.7531,
        "meta_ephemeris_type": 0,
        "meta_classification_type": "U",
        "meta_norad_cat_id": 31882,
        "meta_element_set_no": 999,
        "meta_rev_at_epoch": 58520,
        "meta_bstar": 0.0011941,
        "meta_mean_motion_dot": 2.193e-05,
        "meta_mean_motion_ddot": 0,
        "tle_line1": "1 31882U 99025CKH 25338.50290661  .00002193  00000+0  11941-2 0  9999",
        "tle_line2": "2 31882  98.9162 261.0675 0035445 248.9848 110.7531 14.12940251585207"
      },
      "geometry": {
        "type": "Point",
        "coordinates": [
          91.09558923348898,
          24.357274974704264
        ]
      }
    },
    {
      "type": "Feature",
      "properties": {
        "norad_id": 31883,
        "name": "FENGYUN 1C DEB",
        "group": "fengyun-1c-debris",
        "lat": 45.618727755075525,
        "lon": 90.22763423768227,
        "alt_km": 616.2927015896385,
        "timestamp": "2025-12-10T11:33:53.669599+00:00",
        "meta_object_name": "FENGYUN 1C DEB",
        "meta_object_id": "1999-025CKJ",
        "meta_epoch": "2025-12-09T16:58:20.815968",
        "meta_mean_motion": 14.67696286,
        "meta_eccentricity": 0.0125127,
        "meta_inclination": 99.0273,
        "meta_ra_of_asc_node": 260.0251,
        "meta_arg_of_pericenter": 78.4321,
        "meta_mean_anomaly": 283.0897,
        "meta_ephemeris_type": 0,
        "meta_classification_type": "U",
        "meta_norad_cat_id": 31883,
        "meta_element_set_no": 999,
        "meta_rev_at_epoch": 97934,
        "meta_bstar": 0.0010533,
        "meta_mean_motion_dot": 6.688e-05,
        "meta_mean_motion_ddot": 0,
        "tle_line1": "1 31883U 99025CKJ 25343.70718537  .00006688  00000+0  10533-2 0  9994",
        "tle_line2": "2 31883  99.0273 260.0251 0125127  78.4321 283.0897 14.67696286979348"
      },
      "geometry": {
        "type": "Point",
        "coordinates": [
          90.22763423768227,
          45.618727755075525
        ]
      }
    },
    {
      "type": "Feature",
      "properties": {
        "norad_id": 31887,
        "name": "FENGYUN 1C DEB",
        "group": "fengyun-1c-debris",
        "lat": -6.44536488020016,
        "lon": 36.843218930695464,
        "alt_km": 687.9065088958223,
        "timestamp": "2025-12-10T11:33:53.669609+00:00",
        "meta_object_name": "FENGYUN 1C DEB",
        "meta_object_id": "1999-025CKN",
        "meta_epoch": "2025-12-09T09:14:16.435680",
        "meta_mean_motion": 14.57748959,
        "meta_eccentricity": 0.00241735,
        "meta_inclination": 99.5336,
        "meta_ra_of_asc_node": 34.5002,
        "meta_arg_of_pericenter": 15.3067,
        "meta_mean_anomaly": 344.8853,
        "meta_ephemeris_type": 0,
        "meta_classification_type": "U",
        "meta_norad_cat_id": 31887,
        "meta_element_set_no": 999,
        "meta_rev_at_epoch": 96559,
        "meta_bstar": 0.0014139857,
        "meta_mean_motion_dot": 6.433e-05,
        "meta_mean_motion_ddot": 0,
        "tle_line1": "1 31887U 99025CKN 25343.38491245  .00006433  00000+0  14140-2 0  9992",
        "tle_line2": "2 31887  99.5336  34.5002 0024173  15.3067 344.8853 14.57748959965595"
      },
      "geometry": {
        "type": "Point",
        "coordinates": [
          36.843218930695464,
          -6.44536488020016
        ]
      }
    }
  ]
}